{
    "links": {
        "self": "http://www.neowsapp.com/rest/v1/neo/3724244?api_key=iIulBulltgU6a56xZRHN4H3l9WmuAYTsLGpBGhQ2"
    },
    "id": "3724244",
    "neo_reference_id": "3724244",
    "name": "(2015 OR21)",
    "designation": "2015 OR21",
    "nasa_jpl_url": "http://ssd.jpl.nasa.gov/sbdb.cgi?sstr=3724244",
    "absolute_magnitude_h": 23.5,
    "estimated_diameter": {
        "kilometers": {
            "estimated_diameter_min": 0.0530340723,
            "estimated_diameter_max": 0.1185877909
        },
        "meters": {
            "estimated_diameter_min": 53.0340723319,
            "estimated_diameter_max": 118.5877908577
        },
        "miles": {
            "estimated_diameter_min": 0.0329538346,
            "estimated_diameter_max": 0.0736870142
        },
        "feet": {
            "estimated_diameter_min": 173.9963058693,
            "estimated_diameter_max": 389.0675677576
        }
    },
    "is_potentially_hazardous_asteroid": false,
    "close_approach_data": [
        {
            "close_approach_date": "2015-07-17",
            "close_approach_date_full": "2015-Jul-17 12:34",
            "epoch_date_close_approach": 1437136440000,
            "relative_velocity": {
                "kilometers_per_second": "1.9089746394",
                "kilometers_per_hour": "6872.3087017469",
                "miles_per_hour": "4270.185370816"
            },
            "miss_distance": {
                "astronomical": "0.2402054549",
                "lunar": "93.4399219561",
                "kilometers": "35934224.415421063",
                "miles": "22328491.6658261494"
            },
            "orbiting_body": "Earth"
        }
    ],
    "orbital_data": {
        "orbit_id": "7",
        "orbit_determination_date": "2017-04-06 08:32:43",
        "first_observation_date": "2015-07-19",
        "last_observation_date": "2015-09-17",
        "data_arc_in_days": 60,
        "observations_used": 18,
        "orbit_uncertainty": "7",
        "minimum_orbit_intersection": ".230909",
        "jupiter_tisserand_invariant": "3.780",
        "epoch_osculation": "2459000.5",
        "eccentricity": ".3684942550368226",
        "semi_major_axis": "1.974727755694551",
        "inclination": ".4666170802267375",
        "ascending_node_longitude": "343.728410530297",
        "orbital_period": "1013.582894107842",
        "perihelion_distance": "1.247051922459351",
        "perihelion_argument": "306.880206728291",
        "aphelion_distance": "2.702403588929751",
        "perihelion_time": "2459240.210116247695",
        "mean_anomaly": "274.8607949573499",
        "mean_motion": ".3551756862637985",
        "equinox": "J2000",
        "orbit_class": {
            "orbit_class_type": "AMO",
            "orbit_class_description": "Near-Earth asteroid orbits similar to that of 1221 Amor",
            "orbit_class_range": "1.017 AU < q (perihelion) < 1.3 AU"
        }
    },
    "is_sentry_object": false
}